CYGNUS NG-23            
1 65616U 25208A   25362.53357480  .00015441  00000+0  27889-3 0  9995
2 65616  51.6321  64.2558 0003250 314.4858  45.5864 15.49907133   225
DRAGONFLY               
1 65729U 98067XH  25362.16083023  .00254261  00000+0  14472-2 0  9999
2 65729  51.6253  56.4851 0008397   7.7106 352.4022 15.77632435 15591
1998-067XK              
1 65731U 98067XK  25362.42002430  .00132128  00000+0  11119-2 0  9996
2 65731  51.6293  57.5001 0005104 342.8254  17.2570 15.68911796 15603
RSP-03                  
1 65732U 98067XL  25362.45457600  .00185291  00000+0  13078-2 0  9998
2 65732  51.6263  56.2137 0006193 350.2340   9.8537 15.72922553 15636
GHS-01                  
1 65733U 98067XM  25361.88679635  .00344717  00000+0  15714-2 0  9998
2 65733  51.6276  56.9127 0009580  10.1535 349.9659 15.82243780 15573
YOTSUBA-KULOVER         
1 65941U 98067XN  25362.40229409  .00086923  00000+0  98550-3 0  9990
2 65941  51.6293  61.1334 0002847  15.7949 344.3133 15.61634707 12304
BOTAN                   
1 65942U 98067XP  25362.43141189  .00145148  00000+0  13533-2 0  9994
2 65942  51.6282  59.8249 0003790 359.7560   0.3434 15.66350240 12327
E-KAGAKU-1              
1 65943U 98067XQ  25362.40234409  .00089775  00000+0  10163-2 0  9999
2 65943  51.6304  61.1386 0001592 353.4513   6.6460 15.61660779 12300
HRC MONOBLOCK CAMERA    
1 66052U 98067XR  25362.59237394  .00042061  00000+0  61328-3 0  9994
2 66052  51.6304  62.3998 0001758 265.7910  94.2880 15.55264133 11309
HTV-X1                  
1 66174U 25241A   25362.53357480  .00015441  00000+0  27889-3 0  9992
2 66174  51.6321  64.2558 0003250 314.4858  45.5864 15.49907133   517
SZ-21 MODULE            
1 66515U 25246C   25362.19495185  .00035208  00000+0  37385-3 0  9998
2 66515  41.4762 281.7105 0003889 344.6689  15.4033 15.63334687  6863
SHENZHOU-22             
1 66645U 25272A   25362.46845297  .00022448  00000+0  27476-3 0  9996
2 66645  41.4673 281.1738 0009050 167.6294 192.4768 15.59804684265980
