CCSDS_OMM_VERS = 2.0
CREATION_DATE  = 
ORIGINATOR     = 

OBJECT_NAME    = CYGNUS NG-23
OBJECT_ID      = 2025-208A
CENTER_NAME    = EARTH
REF_FRAME      = TEME
TIME_SYSTEM    = UTC
MEAN_ELEMENT_THEORY = SGP/SGP4

EPOCH          = 2025-12-28T12:48:20.862720
MEAN_MOTION    = 15.49907133
ECCENTRICITY   = .00032501
INCLINATION    = 51.6321
RA_OF_ASC_NODE = 64.2558
ARG_OF_PERICENTER = 314.4858
MEAN_ANOMALY   = 45.5864

EPHEMERIS_TYPE = 0
CLASSIFICATION_TYPE = U
NORAD_CAT_ID   = 65616
ELEMENT_SET_NO = 999
REV_AT_EPOCH   = 22
BSTAR          = .27889005E-3
MEAN_MOTION_DOT = .15441E-3
MEAN_MOTION_DDOT = 0

CCSDS_OMM_VERS = 2.0
CREATION_DATE  = 
ORIGINATOR     = 

OBJECT_NAME    = DRAGONFLY
OBJECT_ID      = 1998-067XH
CENTER_NAME    = EARTH
REF_FRAME      = TEME
TIME_SYSTEM    = UTC
MEAN_ELEMENT_THEORY = SGP/SGP4

EPOCH          = 2025-12-28T03:51:35.731872
MEAN_MOTION    = 15.77632435
ECCENTRICITY   = .00083971
INCLINATION    = 51.6253
RA_OF_ASC_NODE = 56.4851
ARG_OF_PERICENTER = 7.7106
MEAN_ANOMALY   = 352.4022

EPHEMERIS_TYPE = 0
CLASSIFICATION_TYPE = U
NORAD_CAT_ID   = 65729
ELEMENT_SET_NO = 999
REV_AT_EPOCH   = 1559
BSTAR          = .14471821E-2
MEAN_MOTION_DOT = .254261E-2
MEAN_MOTION_DDOT = 0

CCSDS_OMM_VERS = 2.0
CREATION_DATE  = 
ORIGINATOR     = 

OBJECT_NAME    = 1998-067XK
OBJECT_ID      = 1998-067XK
CENTER_NAME    = EARTH
REF_FRAME      = TEME
TIME_SYSTEM    = UTC
MEAN_ELEMENT_THEORY = SGP/SGP4

EPOCH          = 2025-12-28T10:04:50.099520
MEAN_MOTION    = 15.68911796
ECCENTRICITY   = .0005104
INCLINATION    = 51.6293
RA_OF_ASC_NODE = 57.5001
ARG_OF_PERICENTER = 342.8254
MEAN_ANOMALY   = 17.2570

EPHEMERIS_TYPE = 0
CLASSIFICATION_TYPE = U
NORAD_CAT_ID   = 65731
ELEMENT_SET_NO = 999
REV_AT_EPOCH   = 1560
BSTAR          = .1111931E-2
MEAN_MOTION_DOT = .132128E-2
MEAN_MOTION_DDOT = 0

CCSDS_OMM_VERS = 2.0
CREATION_DATE  = 
ORIGINATOR     = 

OBJECT_NAME    = RSP-03
OBJECT_ID      = 1998-067XL
CENTER_NAME    = EARTH
REF_FRAME      = TEME
TIME_SYSTEM    = UTC
MEAN_ELEMENT_THEORY = SGP/SGP4

EPOCH          = 2025-12-28T10:54:35.366400
MEAN_MOTION    = 15.72922553
ECCENTRICITY   = .0006193
INCLINATION    = 51.6263
RA_OF_ASC_NODE = 56.2137
ARG_OF_PERICENTER = 350.2340
MEAN_ANOMALY   = 9.8537

EPHEMERIS_TYPE = 0
CLASSIFICATION_TYPE = U
NORAD_CAT_ID   = 65732
ELEMENT_SET_NO = 999
REV_AT_EPOCH   = 1563
BSTAR          = .13078498E-2
MEAN_MOTION_DOT = .185291E-2
MEAN_MOTION_DDOT = 0

CCSDS_OMM_VERS = 2.0
CREATION_DATE  = 
ORIGINATOR     = 

OBJECT_NAME    = GHS-01
OBJECT_ID      = 1998-067XM
CENTER_NAME    = EARTH
REF_FRAME      = TEME
TIME_SYSTEM    = UTC
MEAN_ELEMENT_THEORY = SGP/SGP4

EPOCH          = 2025-12-27T21:16:59.204640
MEAN_MOTION    = 15.82243780
ECCENTRICITY   = .000958
INCLINATION    = 51.6276
RA_OF_ASC_NODE = 56.9127
ARG_OF_PERICENTER = 10.1535
MEAN_ANOMALY   = 349.9659

EPHEMERIS_TYPE = 0
CLASSIFICATION_TYPE = U
NORAD_CAT_ID   = 65733
ELEMENT_SET_NO = 999
REV_AT_EPOCH   = 1557
BSTAR          = .15714E-2
MEAN_MOTION_DOT = .344717E-2
MEAN_MOTION_DDOT = 0

CCSDS_OMM_VERS = 2.0
CREATION_DATE  = 
ORIGINATOR     = 

OBJECT_NAME    = YOTSUBA-KULOVER
OBJECT_ID      = 1998-067XN
CENTER_NAME    = EARTH
REF_FRAME      = TEME
TIME_SYSTEM    = UTC
MEAN_ELEMENT_THEORY = SGP/SGP4

EPOCH          = 2025-12-28T09:39:18.209376
MEAN_MOTION    = 15.61634707
ECCENTRICITY   = .00028478
INCLINATION    = 51.6293
RA_OF_ASC_NODE = 61.1334
ARG_OF_PERICENTER = 15.7949
MEAN_ANOMALY   = 344.3133

EPHEMERIS_TYPE = 0
CLASSIFICATION_TYPE = U
NORAD_CAT_ID   = 65941
ELEMENT_SET_NO = 999
REV_AT_EPOCH   = 1230
BSTAR          = .98550048E-3
MEAN_MOTION_DOT = .86923E-3
MEAN_MOTION_DDOT = 0

CCSDS_OMM_VERS = 2.0
CREATION_DATE  = 
ORIGINATOR     = 

OBJECT_NAME    = BOTAN
OBJECT_ID      = 1998-067XP
CENTER_NAME    = EARTH
REF_FRAME      = TEME
TIME_SYSTEM    = UTC
MEAN_ELEMENT_THEORY = SGP/SGP4

EPOCH          = 2025-12-28T10:21:13.987296
MEAN_MOTION    = 15.66350240
ECCENTRICITY   = .000379
INCLINATION    = 51.6282
RA_OF_ASC_NODE = 59.8249
ARG_OF_PERICENTER = 359.7560
MEAN_ANOMALY   = 0.3434

EPHEMERIS_TYPE = 0
CLASSIFICATION_TYPE = U
NORAD_CAT_ID   = 65942
ELEMENT_SET_NO = 999
REV_AT_EPOCH   = 1232
BSTAR          = .13532657E-2
MEAN_MOTION_DOT = .145148E-2
MEAN_MOTION_DDOT = 0

CCSDS_OMM_VERS = 2.0
CREATION_DATE  = 
ORIGINATOR     = 

OBJECT_NAME    = E-KAGAKU-1
OBJECT_ID      = 1998-067XQ
CENTER_NAME    = EARTH
REF_FRAME      = TEME
TIME_SYSTEM    = UTC
MEAN_ELEMENT_THEORY = SGP/SGP4

EPOCH          = 2025-12-28T09:39:22.529376
MEAN_MOTION    = 15.61660779
ECCENTRICITY   = .0001592
INCLINATION    = 51.6304
RA_OF_ASC_NODE = 61.1386
ARG_OF_PERICENTER = 353.4513
MEAN_ANOMALY   = 6.6460

EPHEMERIS_TYPE = 0
CLASSIFICATION_TYPE = U
NORAD_CAT_ID   = 65943
ELEMENT_SET_NO = 999
REV_AT_EPOCH   = 1230
BSTAR          = .10163455E-2
MEAN_MOTION_DOT = .89775E-3
MEAN_MOTION_DDOT = 0

CCSDS_OMM_VERS = 2.0
CREATION_DATE  = 
ORIGINATOR     = 

OBJECT_NAME    = HRC MONOBLOCK CAMERA
OBJECT_ID      = 1998-067XR
CENTER_NAME    = EARTH
REF_FRAME      = TEME
TIME_SYSTEM    = UTC
MEAN_ELEMENT_THEORY = SGP/SGP4

EPOCH          = 2025-12-28T14:13:01.108416
MEAN_MOTION    = 15.55264133
ECCENTRICITY   = .00017588
INCLINATION    = 51.6304
RA_OF_ASC_NODE = 62.3998
ARG_OF_PERICENTER = 265.7910
MEAN_ANOMALY   = 94.2880

EPHEMERIS_TYPE = 0
CLASSIFICATION_TYPE = U
NORAD_CAT_ID   = 66052
ELEMENT_SET_NO = 999
REV_AT_EPOCH   = 1130
BSTAR          = .6132842E-3
MEAN_MOTION_DOT = .42061E-3
MEAN_MOTION_DDOT = 0

CCSDS_OMM_VERS = 2.0
CREATION_DATE  = 
ORIGINATOR     = 

OBJECT_NAME    = HTV-X1
OBJECT_ID      = 2025-241A
CENTER_NAME    = EARTH
REF_FRAME      = TEME
TIME_SYSTEM    = UTC
MEAN_ELEMENT_THEORY = SGP/SGP4

EPOCH          = 2025-12-28T12:48:20.862720
MEAN_MOTION    = 15.49907133
ECCENTRICITY   = .00032501
INCLINATION    = 51.6321
RA_OF_ASC_NODE = 64.2558
ARG_OF_PERICENTER = 314.4858
MEAN_ANOMALY   = 45.5864

EPHEMERIS_TYPE = 0
CLASSIFICATION_TYPE = U
NORAD_CAT_ID   = 66174
ELEMENT_SET_NO = 999
REV_AT_EPOCH   = 51
BSTAR          = .27889005E-3
MEAN_MOTION_DOT = .15441E-3
MEAN_MOTION_DDOT = 0

CCSDS_OMM_VERS = 2.0
CREATION_DATE  = 
ORIGINATOR     = 

OBJECT_NAME    = SZ-21 MODULE
OBJECT_ID      = 2025-246C
CENTER_NAME    = EARTH
REF_FRAME      = TEME
TIME_SYSTEM    = UTC
MEAN_ELEMENT_THEORY = SGP/SGP4

EPOCH          = 2025-12-28T04:40:43.839840
MEAN_MOTION    = 15.63334687
ECCENTRICITY   = .0003889
INCLINATION    = 41.4762
RA_OF_ASC_NODE = 281.7105
ARG_OF_PERICENTER = 344.6689
MEAN_ANOMALY   = 15.4033

EPHEMERIS_TYPE = 0
CLASSIFICATION_TYPE = U
NORAD_CAT_ID   = 66515
ELEMENT_SET_NO = 999
REV_AT_EPOCH   = 686
BSTAR          = .37385E-3
MEAN_MOTION_DOT = .35208E-3
MEAN_MOTION_DDOT = 0

CCSDS_OMM_VERS = 2.0
CREATION_DATE  = 
ORIGINATOR     = 

OBJECT_NAME    = SHENZHOU-22
OBJECT_ID      = 2025-272A
CENTER_NAME    = EARTH
REF_FRAME      = TEME
TIME_SYSTEM    = UTC
MEAN_ELEMENT_THEORY = SGP/SGP4

EPOCH          = 2025-12-28T11:14:34.336608
MEAN_MOTION    = 15.59804684
ECCENTRICITY   = .00090506
INCLINATION    = 41.4673
RA_OF_ASC_NODE = 281.1738
ARG_OF_PERICENTER = 167.6294
MEAN_ANOMALY   = 192.4768

EPHEMERIS_TYPE = 0
CLASSIFICATION_TYPE = U
NORAD_CAT_ID   = 66645
ELEMENT_SET_NO = 999
REV_AT_EPOCH   = 26598
BSTAR          = .27475522E-3
MEAN_MOTION_DOT = .22448E-3
MEAN_MOTION_DDOT = 0

